{"type": "FeatureCollection", "features": [
{"id":"0eac054c-c24e-4339-a2f5-daf00385de64","type":"Feature","geometry":{"type":"Polygon","coordinates":[[[-69.80011,9.9736571],[-69.8001315,9.9736114],[-69.8000785,9.9735872],[-69.800057,9.9736329],[-69.80011,9.9736571]]]},"properties":{"sources":[{"property":"","dataset":"Microsoft ML Buildings","license":"ODbL-1.0","record_id":null,"update_time":"2023-04-14T00:00:00.000Z","confidence":null,"between":null}],"is_underground":false,"has_parts":false,"version":3}},
{"id":"af11f45d-9a32-4151-8450-a4d62b1cbb86","type":"Feature","geometry":{"type":"Polygon","coordinates":[[[-69.7988682,9.9720659],[-69.7989839,9.9711744],[-69.7987411,9.9711438],[-69.7986256,9.9720338],[-69.7986942,9.9720425],[-69.798694,9.972044],[-69.7988682,9.9720659]]]},"properties":{"sources":[{"property":"","dataset":"Microsoft ML Buildings","license":"ODbL-1.0","record_id":null,"update_time":"2023-04-14T00:00:00.000Z","confidence":null,"between":null}],"is_underground":false,"has_parts":false,"version":3}},
{"id":"a21afdde-844b-4c06-9c81-37ee02ab0aab","type":"Feature","geometry":{"type":"Polygon","coordinates":[[[-69.7986086,9.971657],[-69.7986764,9.9711345],[-69.7984113,9.9711012],[-69.7983515,9.9715624],[-69.7984292,9.9715721],[-69.7984275,9.9715851],[-69.7984855,9.9715924],[-69.7984793,9.9716407],[-69.7986086,9.971657]]]},"properties":{"sources":[{"property":"","dataset":"Microsoft ML Buildings","license":"ODbL-1.0","record_id":null,"update_time":"2023-04-14T00:00:00.000Z","confidence":null,"between":null}],"is_underground":false,"has_parts":false,"version":3}},
{"id":"1631aeb9-d7aa-46a8-acc1-57ead568f223","type":"Feature","geometry":{"type":"Polygon","coordinates":[[[-69.7982086,9.9719504],[-69.7983272,9.9710607],[-69.7980872,9.9710297],[-69.7979687,9.9719194],[-69.7982086,9.9719504]]]},"properties":{"sources":[{"property":"","dataset":"Microsoft ML Buildings","license":"ODbL-1.0","record_id":null,"update_time":"2023-04-14T00:00:00.000Z","confidence":null,"between":null}],"is_underground":false,"has_parts":false,"version":3}},
{"id":"2508b4dd-a42d-4bba-95db-48b5c07046ad","type":"Feature","geometry":{"type":"Polygon","coordinates":[[[-69.798968,9.9721659],[-69.7991569,9.9721822],[-69.7992375,9.9712751],[-69.7990485,9.9712588],[-69.798968,9.9721659]]]},"properties":{"sources":[{"property":"","dataset":"Microsoft ML Buildings","license":"ODbL-1.0","record_id":null,"update_time":"2023-04-14T00:00:00.000Z","confidence":null,"between":null}],"is_underground":false,"has_parts":false,"version":3}},
{"id":"ed1f29f4-ee10-4ba7-8347-40d30112f703","type":"Feature","geometry":{"type":"Polygon","coordinates":[[[-69.7996928,9.9725503],[-69.7996813,9.9726696],[-69.7998567,9.972686],[-69.7998683,9.9725668],[-69.7996928,9.9725503]]]},"properties":{"sources":[{"property":"","dataset":"Microsoft ML Buildings","license":"ODbL-1.0","record_id":null,"update_time":"2023-04-14T00:00:00.000Z","confidence":null,"between":null}],"is_underground":false,"has_parts":false,"version":3}},
{"id":"98f3a094-23c7-4ea0-9383-17eae3d9a865","type":"Feature","geometry":{"type":"Polygon","coordinates":[[[-69.7959757,9.9705963],[-69.7959112,9.9706185],[-69.7959237,9.9706538],[-69.7959882,9.9706316],[-69.7959757,9.9705963]]]},"properties":{"sources":[{"property":"","dataset":"Microsoft ML Buildings","license":"ODbL-1.0","record_id":null,"update_time":"2023-04-14T00:00:00.000Z","confidence":null,"between":null}],"is_underground":false,"has_parts":false,"version":3}},
{"id":"0996058a-8f65-4337-9255-147ad60e81c5","type":"Feature","geometry":{"type":"Polygon","coordinates":[[[-69.796143,9.9706282],[-69.7961115,9.9706208],[-69.796103,9.9706557],[-69.7961345,9.9706632],[-69.796143,9.9706282]]]},"properties":{"sources":[{"property":"","dataset":"Microsoft ML Buildings","license":"ODbL-1.0","record_id":null,"update_time":"2023-04-14T00:00:00.000Z","confidence":null,"between":null}],"is_underground":false,"has_parts":false,"version":3}},
{"id":"e505e826-192e-45c4-955c-30e3b244678c","type":"Feature","geometry":{"type":"Polygon","coordinates":[[[-69.7960731,9.9708931],[-69.7962435,9.97086],[-69.7962217,9.9707507],[-69.7960513,9.9707837],[-69.7960731,9.9708931]]]},"properties":{"sources":[{"property":"","dataset":"Microsoft ML Buildings","license":"ODbL-1.0","record_id":null,"update_time":"2023-04-14T00:00:00.000Z","confidence":null,"between":null}],"is_underground":false,"has_parts":false,"version":3}},
{"id":"d501da8c-5b7f-47d6-96ed-559285c237da","type":"Feature","geometry":{"type":"Polygon","coordinates":[[[-69.7961407,9.9709613],[-69.7961242,9.9709393],[-69.7961211,9.9709416],[-69.7963963,9.9713067],[-69.7965135,9.9712199],[-69.7964877,9.9711856],[-69.7965201,9.9711616],[-69.7962873,9.9708527],[-69.7961407,9.9709613]]]},"properties":{"sources":[{"property":"","dataset":"Google Open Buildings","license":null,"record_id":"67XGX6C3+CFM2","update_time":"2023-05-01T00:00:00.000Z","confidence":0.9621,"between":null}],"is_underground":false,"has_parts":false,"version":1}},
{"id":"1104b0e5-566b-46be-a3ae-cd358bfd4908","type":"Feature","geometry":{"type":"Polygon","coordinates":[[[-69.7957248,9.971081999999999],[-69.7956204,9.9711152],[-69.7956672,9.9712579],[-69.7957716,9.9712246],[-69.7957248,9.971081999999999]]]},"properties":{"sources":[{"property":"","dataset":"Microsoft ML Buildings","license":"ODbL-1.0","record_id":null,"update_time":"2023-04-14T00:00:00.000Z","confidence":null,"between":null}],"is_underground":false,"has_parts":false,"version":3}},
{"id":"d3a2bb97-ce19-4a89-8fa5-455ef4f2c59f","type":"Feature","geometry":{"type":"Polygon","coordinates":[[[-69.7992276,9.9710675],[-69.799166,9.9710665],[-69.7991646,9.9711548],[-69.7992263,9.9711558],[-69.7992276,9.9710675]]]},"properties":{"sources":[{"property":"","dataset":"Microsoft ML Buildings","license":"ODbL-1.0","record_id":null,"update_time":"2023-04-14T00:00:00.000Z","confidence":null,"between":null}],"is_underground":false,"has_parts":false,"version":3}},
{"id":"745fab31-364f-4ed2-b9c4-a201d4e5cf49","type":"Feature","geometry":{"type":"Polygon","coordinates":[[[-69.7958135,9.9703001],[-69.7957919,9.9703402],[-69.796019,9.9704603],[-69.795989,9.9705159],[-69.796178,9.9706159],[-69.7961966,9.9705813],[-69.7960218,9.9704888],[-69.7960547,9.9704277],[-69.7958135,9.9703001]]]},"properties":{"sources":[{"property":"","dataset":"Google Open Buildings","license":null,"record_id":"67XGX6C3+5JJ3","update_time":"2023-05-01T00:00:00.000Z","confidence":0.8345,"between":null}],"is_underground":false,"has_parts":false,"version":1}}]}